start=new Date('2023-05-08T00:00:00.000Z').valueOf();
sats=[{"RA_OF_ASC_NODE":"261.0607","DECAY_DATE":null,"BSTAR":"0.00171610000000","PERIAPSIS":"546.305","CLASSIFICATION_TYPE":"U","ELEMENT_SET_NO":"999","GP_ID":"231428365","MEAN_MOTION":"15.06458299","NORAD_CAT_ID":"47885","TLE_LINE1":"1 47885U 21021AB  23127.87417174  .00025413  00000-0  17161-2 0  9995","CENTER_NAME":"EARTH","MEAN_ANOMALY":"308.2710","FILE":"3903413","MEAN_MOTION_DDOT":"0.0000000000000","MEAN_ELEMENT_THEORY":"SGP4","REF_FRAME":"TEME","OBJECT_TYPE":"PAYLOAD","LAUNCH_DATE":"2021-03-14","PERIOD":"95.588","COUNTRY_CODE":"US","OBJECT_NAME":"STARLINK-2344","INCLINATION":"53.0542","OBJECT_ID":"2021-021AB","APOAPSIS":"547.765","ECCENTRICITY":"0.00010540","ARG_OF_PERICENTER":"51.8374","TLE_LINE2":"2 47885  53.0542 261.0607 0001054  51.8374 308.2710 15.06458299119868","SEMIMAJOR_AXIS":"6925.170","EPHEMERIS_TYPE":"0","TIME_SYSTEM":"UTC","SITE":"AFETR","EPOCH":"2023-05-07T20:58:48.438336","REV_AT_EPOCH":"11986","MEAN_MOTION_DOT":"0.00025413","RCS_SIZE":"LARGE"},{"ARG_OF_PERICENTER":"296.5880","TLE_LINE2":"2 47886  53.0620 242.3010 0005007 296.5880  63.4604 15.25960189119463","OBJECT_NAME":"STARLINK-2345","COUNTRY_CODE":"US","INCLINATION":"53.0620","OBJECT_ID":"2021-021AC","PERIOD":"94.367","ECCENTRICITY":"0.00050070","APOAPSIS":"491.344","LAUNCH_DATE":"2021-03-14","REF_FRAME":"TEME","OBJECT_TYPE":"PAYLOAD","RCS_SIZE":"LARGE","MEAN_MOTION_DOT":"0.00082876","REV_AT_EPOCH":"11946","TIME_SYSTEM":"UTC","EPOCH":"2023-05-07T13:53:04.172064","SITE":"AFETR","SEMIMAJOR_AXIS":"6866.041","EPHEMERIS_TYPE":"0","NORAD_CAT_ID":"47886","ELEMENT_SET_NO":"999","CLASSIFICATION_TYPE":"U","PERIAPSIS":"484.468","MEAN_MOTION":"15.25960189","GP_ID":"231403484","DECAY_DATE":null,"BSTAR":"0.00316160000000","RA_OF_ASC_NODE":"242.3010","MEAN_MOTION_DDOT":"0.0000000000000","MEAN_ELEMENT_THEORY":"SGP4","MEAN_ANOMALY":"63.4604","FILE":"3903267","TLE_LINE1":"1 47886U 21021AC  23127.57852051  .00082876  00000-0  31616-2 0  9997","CENTER_NAME":"EARTH"},{"OBJECT_TYPE":"PAYLOAD","REF_FRAME":"TEME","LAUNCH_DATE":"2021-03-14","APOAPSIS":"547.767","ECCENTRICITY":"0.00010230","OBJECT_NAME":"STARLINK-2346","COUNTRY_CODE":"US","INCLINATION":"53.0550","OBJECT_ID":"2021-021AD","PERIOD":"95.589","TLE_LINE2":"2 47887  53.0550 257.1406 0001023  74.7003 285.4099 15.06450690119741","ARG_OF_PERICENTER":"74.7003","EPHEMERIS_TYPE":"0","SEMIMAJOR_AXIS":"6925.193","EPOCH":"2023-05-07T15:11:49.385472","SITE":"AFETR","TIME_SYSTEM":"UTC","REV_AT_EPOCH":"11974","MEAN_MOTION_DOT":"0.00026477","RCS_SIZE":"LARGE","RA_OF_ASC_NODE":"257.1406","DECAY_DATE":null,"BSTAR":"0.00178730000000","MEAN_MOTION":"15.06450690","GP_ID":"231427863","ELEMENT_SET_NO":"999","PERIAPSIS":"546.350","CLASSIFICATION_TYPE":"U","NORAD_CAT_ID":"47887","CENTER_NAME":"EARTH","TLE_LINE1":"1 47887U 21021AD  23127.63321048  .00026477  00000-0  17873-2 0  9996","FILE":"3903413","MEAN_ANOMALY":"285.4099","MEAN_ELEMENT_THEORY":"SGP4","MEAN_MOTION_DDOT":"0.0000000000000"},{"SITE":"AFETR","EPOCH":"2023-05-07T15:44:59.318304","TIME_SYSTEM":"UTC","EPHEMERIS_TYPE":"0","SEMIMAJOR_AXIS":"6925.204","MEAN_MOTION_DOT":"0.00031068","RCS_SIZE":"LARGE","REV_AT_EPOCH":"11989","LAUNCH_DATE":"2021-03-14","OBJECT_TYPE":"PAYLOAD","REF_FRAME":"TEME","TLE_LINE2":"2 47888  53.0532 247.0394 0000848  34.0713 326.0330 15.06447273119896","ARG_OF_PERICENTER":"34.0713","APOAPSIS":"547.656","ECCENTRICITY":"0.00008480","PERIOD":"95.589","COUNTRY_CODE":"US","INCLINATION":"53.0532","OBJECT_NAME":"STARLINK-2348","OBJECT_ID":"2021-021AE","CENTER_NAME":"EARTH","TLE_LINE1":"1 47888U 21021AE  23127.65624211  .00031068  00000-0  20928-2 0  9994","MEAN_ELEMENT_THEORY":"SGP4","MEAN_MOTION_DDOT":"0.0000000000000","FILE":"3903413","MEAN_ANOMALY":"326.0330","BSTAR":"0.00209280000000","DECAY_DATE":null,"RA_OF_ASC_NODE":"247.0394","NORAD_CAT_ID":"47888","GP_ID":"231428113","MEAN_MOTION":"15.06447273","PERIAPSIS":"546.481","CLASSIFICATION_TYPE":"U","ELEMENT_SET_NO":"999"},{"SEMIMAJOR_AXIS":"6925.188","EPHEMERIS_TYPE":"0","TIME_SYSTEM":"UTC","SITE":"AFETR","EPOCH":"2023-05-07T14:25:22.595808","REV_AT_EPOCH":"11993","MEAN_MOTION_DOT":"0.00030722","RCS_SIZE":"LARGE","REF_FRAME":"TEME","OBJECT_TYPE":"PAYLOAD","LAUNCH_DATE":"2021-03-14","PERIOD":"95.589","INCLINATION":"53.0540","COUNTRY_CODE":"US","OBJECT_ID":"2021-021AF","OBJECT_NAME":"STARLINK-2349","APOAPSIS":"547.780","ECCENTRICITY":"0.00010500","ARG_OF_PERICENTER":"48.1822","TLE_LINE2":"2 47889  53.0540 247.2877 0001050  48.1822 311.9256 15.06452347119930","CENTER_NAME":"EARTH","TLE_LINE1":"1 47889U 21021AF  23127.60095597  .00030722  00000-0  20695-2 0  9996","MEAN_ANOMALY":"311.9256","FILE":"3903413","MEAN_MOTION_DDOT":"0.0000000000000","MEAN_ELEMENT_THEORY":"SGP4","RA_OF_ASC_NODE":"247.2877","DECAY_DATE":null,"BSTAR":"0.00206950000000","CLASSIFICATION_TYPE":"U","PERIAPSIS":"546.326","ELEMENT_SET_NO":"999","GP_ID":"231428865","MEAN_MOTION":"15.06452347","NORAD_CAT_ID":"47889"},{"TLE_LINE1":"1 47891U 21021AH  23127.67375642  .00037286  00000-0  25048-2 0  9997","CENTER_NAME":"EARTH","MEAN_ELEMENT_THEORY":"SGP4","MEAN_MOTION_DDOT":"0.0000000000000","FILE":"3903413","MEAN_ANOMALY":"317.4525","BSTAR":"0.00250480000000","DECAY_DATE":null,"RA_OF_ASC_NODE":"256.9607","NORAD_CAT_ID":"47891","GP_ID":"231428616","MEAN_MOTION":"15.06460178","CLASSIFICATION_TYPE":"U","PERIAPSIS":"546.328","ELEMENT_SET_NO":"999","SITE":"AFETR","EPOCH":"2023-05-07T16:10:12.554688","TIME_SYSTEM":"UTC","EPHEMERIS_TYPE":"0","SEMIMAJOR_AXIS":"6925.164","MEAN_MOTION_DOT":"0.00037286","RCS_SIZE":"LARGE","REV_AT_EPOCH":"11991","LAUNCH_DATE":"2021-03-14","OBJECT_TYPE":"PAYLOAD","REF_FRAME":"TEME","TLE_LINE2":"2 47891  53.0533 256.9607 0001013  42.6543 317.4525 15.06460178119910","ARG_OF_PERICENTER":"42.6543","ECCENTRICITY":"0.00010130","APOAPSIS":"547.731","PERIOD":"95.588","COUNTRY_CODE":"US","OBJECT_NAME":"STARLINK-2351","INCLINATION":"53.0533","OBJECT_ID":"2021-021AH"},{"DECAY_DATE":null,"BSTAR":"0.00226910000000","RA_OF_ASC_NODE":"225.0209","NORAD_CAT_ID":"47892","MEAN_MOTION":"15.17482478","GP_ID":"231396533","ELEMENT_SET_NO":"999","CLASSIFICATION_TYPE":"U","PERIAPSIS":"512.809","CENTER_NAME":"EARTH","TLE_LINE1":"1 47892U 21021AJ  23127.49709162  .00045993  00000-0  22691-2 0  9991","MEAN_ELEMENT_THEORY":"SGP4","MEAN_MOTION_DDOT":"0.0000000000000","FILE":"3903215","MEAN_ANOMALY":"257.7599","LAUNCH_DATE":"2021-03-14","OBJECT_TYPE":"PAYLOAD","REF_FRAME":"TEME","TLE_LINE2":"2 47892  53.0552 225.0209 0000937 102.3500 257.7599 15.17482478120196","ARG_OF_PERICENTER":"102.3500","ECCENTRICITY":"0.00009370","APOAPSIS":"514.100","OBJECT_ID":"2021-021AJ","COUNTRY_CODE":"US","INCLINATION":"53.0552","OBJECT_NAME":"STARLINK-2352","PERIOD":"94.894","EPOCH":"2023-05-07T11:55:48.715968","SITE":"AFETR","TIME_SYSTEM":"UTC","EPHEMERIS_TYPE":"0","SEMIMAJOR_AXIS":"6891.589","RCS_SIZE":"LARGE","MEAN_MOTION_DOT":"0.00045993","REV_AT_EPOCH":"12019"},{"NORAD_CAT_ID":"47894","CLASSIFICATION_TYPE":"U","PERIAPSIS":"546.208","ELEMENT_SET_NO":"999","GP_ID":"231397784","MEAN_MOTION":"15.06439782","DECAY_DATE":null,"BSTAR":"0.00182200000000","RA_OF_ASC_NODE":"247.4517","MEAN_MOTION_DDOT":"0.0000000000000","MEAN_ELEMENT_THEORY":"SGP4","MEAN_ANOMALY":"284.2749","FILE":"3903215","CENTER_NAME":"EARTH","TLE_LINE1":"1 47894U 21021AL  23127.56410057  .00026991  00000-0  18220-2 0  9993","ARG_OF_PERICENTER":"75.8382","TLE_LINE2":"2 47894  53.0544 247.4517 0001276  75.8382 284.2749 15.06439782119826","PERIOD":"95.590","COUNTRY_CODE":"US","OBJECT_NAME":"STARLINK-2354","INCLINATION":"53.0544","OBJECT_ID":"2021-021AL","ECCENTRICITY":"0.00012760","APOAPSIS":"547.975","LAUNCH_DATE":"2021-03-14","REF_FRAME":"TEME","OBJECT_TYPE":"PAYLOAD","RCS_SIZE":"LARGE","MEAN_MOTION_DOT":"0.00026991","REV_AT_EPOCH":"11982","TIME_SYSTEM":"UTC","SITE":"AFETR","EPOCH":"2023-05-07T13:32:18.289248","SEMIMAJOR_AXIS":"6925.227","EPHEMERIS_TYPE":"0"},{"TLE_LINE1":"1 47895U 21021AM  23127.64149411  .00029405  00000-0  19815-2 0  9990","CENTER_NAME":"EARTH","MEAN_ELEMENT_THEORY":"SGP4","MEAN_MOTION_DDOT":"0.0000000000000","FILE":"3903413","MEAN_ANOMALY":"240.4667","DECAY_DATE":null,"BSTAR":"0.00198150000000","RA_OF_ASC_NODE":"247.1100","NORAD_CAT_ID":"47895","GP_ID":"231428366","MEAN_MOTION":"15.06460674","CLASSIFICATION_TYPE":"U","PERIAPSIS":"546.508","ELEMENT_SET_NO":"999","SITE":"AFETR","EPOCH":"2023-05-07T15:23:45.091104","TIME_SYSTEM":"UTC","EPHEMERIS_TYPE":"0","SEMIMAJOR_AXIS":"6925.163","MEAN_MOTION_DOT":"0.00029405","RCS_SIZE":"LARGE","REV_AT_EPOCH":"11986","LAUNCH_DATE":"2021-03-14","OBJECT_TYPE":"PAYLOAD","REF_FRAME":"TEME","TLE_LINE2":"2 47895  53.0530 247.1100 0000750 119.6397 240.4667 15.06460674119867","ARG_OF_PERICENTER":"119.6397","ECCENTRICITY":"0.00007500","APOAPSIS":"547.547","PERIOD":"95.588","COUNTRY_CODE":"US","INCLINATION":"53.0530","OBJECT_ID":"2021-021AM","OBJECT_NAME":"STARLINK-2355"},{"ELEMENT_SET_NO":"999","CLASSIFICATION_TYPE":"U","PERIAPSIS":"546.528","MEAN_MOTION":"15.06402201","GP_ID":"231429116","NORAD_CAT_ID":"47896","RA_OF_ASC_NODE":"262.1390","BSTAR":"0.00212960000000","DECAY_DATE":null,"MEAN_ANOMALY":"275.8708","FILE":"3903413","MEAN_MOTION_DDOT":"0.0000000000000","MEAN_ELEMENT_THEORY":"SGP4","TLE_LINE1":"1 47896U 21021AN  23127.63460034  .00031583  00000-0  21296-2 0  9993","CENTER_NAME":"EARTH","OBJECT_NAME":"STARLINK-2356","COUNTRY_CODE":"US","INCLINATION":"53.0542","OBJECT_ID":"2021-021AN","PERIOD":"95.592","ECCENTRICITY":"0.00009800","APOAPSIS":"547.885","ARG_OF_PERICENTER":"84.2392","TLE_LINE2":"2 47896  53.0542 262.1390 0000980  84.2392 275.8708 15.06402201119620","REF_FRAME":"TEME","OBJECT_TYPE":"PAYLOAD","LAUNCH_DATE":"2021-03-14","REV_AT_EPOCH":"11962","RCS_SIZE":"LARGE","MEAN_MOTION_DOT":"0.00031583","SEMIMAJOR_AXIS":"6925.342","EPHEMERIS_TYPE":"0","TIME_SYSTEM":"UTC","EPOCH":"2023-05-07T15:13:49.469376","SITE":"AFETR"}];
